[{"OBJECT_NAME":"INTELSAT 902 (IS-902)","OBJECT_ID":"2001-039A","EPOCH":"2026-04-26T21:47:38.620032","MEAN_MOTION":1.00270761,"ECCENTRICITY":0.0004515,"INCLINATION":5.9893,"RA_OF_ASC_NODE":72.3941,"ARG_OF_PERICENTER":320.0211,"MEAN_ANOMALY":99.3035,"EPHEMERIS_TYPE":0,"CLASSIFICATION_TYPE":"U","NORAD_CAT_ID":26900,"ELEMENT_SET_NO":999,"REV_AT_EPOCH":9018,"BSTAR":0,"MEAN_MOTION_DOT":-2.9e-6,"MEAN_MOTION_DDOT":0},{"OBJECT_NAME":"SL-12 R/B(2)","OBJECT_ID":"2001-045D","EPOCH":"2026-04-26T23:42:49.490784","MEAN_MOTION":1.0021049,"ECCENTRICITY":0.0026555,"INCLINATION":13.8499,"RA_OF_ASC_NODE":12.4753,"ARG_OF_PERICENTER":27.9038,"MEAN_ANOMALY":238.5173,"EPHEMERIS_TYPE":0,"CLASSIFICATION_TYPE":"U","NORAD_CAT_ID":26939,"ELEMENT_SET_NO":999,"REV_AT_EPOCH":9021,"BSTAR":0,"MEAN_MOTION_DOT":-4.2e-7,"MEAN_MOTION_DDOT":0},{"OBJECT_NAME":"ECHOSTAR 7","OBJECT_ID":"2002-006A","EPOCH":"2026-04-27T01:59:21.598368","MEAN_MOTION":0.99832449,"ECCENTRICITY":0.0003397,"INCLINATION":3.8848,"RA_OF_ASC_NODE":78.0095,"ARG_OF_PERICENTER":299.2036,"MEAN_ANOMALY":290.4995,"EPHEMERIS_TYPE":0,"CLASSIFICATION_TYPE":"U","NORAD_CAT_ID":27378,"ELEMENT_SET_NO":999,"REV_AT_EPOCH":5002,"BSTAR":0,"MEAN_MOTION_DOT":8.1e-7,"MEAN_MOTION_DDOT":0},{"OBJECT_NAME":"INTELSAT 904 (IS-904)","OBJECT_ID":"2002-007A","EPOCH":"2026-04-26T16:50:21.696864","MEAN_MOTION":1.00269764,"ECCENTRICITY":0.00077474,"INCLINATION":6.7944,"RA_OF_ASC_NODE":69.7905,"ARG_OF_PERICENTER":338.929,"MEAN_ANOMALY":27.0697,"EPHEMERIS_TYPE":0,"CLASSIFICATION_TYPE":"U","NORAD_CAT_ID":27380,"ELEMENT_SET_NO":999,"REV_AT_EPOCH":5125,"BSTAR":0,"MEAN_MOTION_DOT":-2.33e-6,"MEAN_MOTION_DDOT":0},{"OBJECT_NAME":"DIRECTV 5 (TEMPO 1)","OBJECT_ID":"2002-023A","EPOCH":"2026-04-27T05:01:51.511008","MEAN_MOTION":1.00272048,"ECCENTRICITY":0.0003499,"INCLINATION":4.75,"RA_OF_ASC_NODE":75.9287,"ARG_OF_PERICENTER":323.3824,"MEAN_ANOMALY":141.247,"EPHEMERIS_TYPE":0,"CLASSIFICATION_TYPE":"U","NORAD_CAT_ID":27426,"ELEMENT_SET_NO":999,"REV_AT_EPOCH":8761,"BSTAR":0,"MEAN_MOTION_DOT":-6.3e-7,"MEAN_MOTION_DDOT":0},{"OBJECT_NAME":"INTELSAT 905 (IS-905)","OBJECT_ID":"2002-027A","EPOCH":"2026-04-27T00:53:37.078080","MEAN_MOTION":1.00273783,"ECCENTRICITY":0.0003493,"INCLINATION":6.628,"RA_OF_ASC_NODE":70.4041,"ARG_OF_PERICENTER":339.7055,"MEAN_ANOMALY":41.1333,"EPHEMERIS_TYPE":0,"CLASSIFICATION_TYPE":"U","NORAD_CAT_ID":27438,"ELEMENT_SET_NO":999,"REV_AT_EPOCH":5085,"BSTAR":0,"MEAN_MOTION_DOT":8.8e-7,"MEAN_MOTION_DDOT":0},{"OBJECT_NAME":"GALAXY 3C (G-3C)","OBJECT_ID":"2002-030A","EPOCH":"2026-04-27T04:22:24.291840","MEAN_MOTION":1.00271753,"ECCENTRICITY":0.0001613,"INCLINATION":3.6002,"RA_OF_ASC_NODE":78.6573,"ARG_OF_PERICENTER":24.7309,"MEAN_ANOMALY":82.5201,"EPHEMERIS_TYPE":0,"CLASSIFICATION_TYPE":"U","NORAD_CAT_ID":27445,"ELEMENT_SET_NO":999,"REV_AT_EPOCH":4598,"BSTAR":0,"MEAN_MOTION_DOT":-1.6e-6,"MEAN_MOTION_DDOT":0},{"OBJECT_NAME":"INTELSAT 906 (IS-906)","OBJECT_ID":"2002-041A","EPOCH":"2026-04-27T00:08:18.921984","MEAN_MOTION":1.00270668,"ECCENTRICITY":0.000404,"INCLINATION":5.6741,"RA_OF_ASC_NODE":73.5351,"ARG_OF_PERICENTER":336.0928,"MEAN_ANOMALY":231.6081,"EPHEMERIS_TYPE":0,"CLASSIFICATION_TYPE":"U","NORAD_CAT_ID":27513,"ELEMENT_SET_NO":999,"REV_AT_EPOCH":8651,"BSTAR":0,"MEAN_MOTION_DOT":7.0e-8,"MEAN_MOTION_DDOT":0},{"OBJECT_NAME":"EUTELSAT 33B","OBJECT_ID":"2002-051A","EPOCH":"2026-04-26T23:57:34.950816","MEAN_MOTION":1.00224734,"ECCENTRICITY":0.001509,"INCLINATION":8.8602,"RA_OF_ASC_NODE":60.4384,"ARG_OF_PERICENTER":332.2637,"MEAN_ANOMALY":208.1456,"EPHEMERIS_TYPE":0,"CLASSIFICATION_TYPE":"U","NORAD_CAT_ID":27554,"ELEMENT_SET_NO":999,"REV_AT_EPOCH":4828,"BSTAR":0,"MEAN_MOTION_DOT":1.28e-6,"MEAN_MOTION_DDOT":0},{"OBJECT_NAME":"NIMIQ 2","OBJECT_ID":"2002-062A","EPOCH":"2026-04-26T21:36:11.014272","MEAN_MOTION":1.00273037,"ECCENTRICITY":0.0006387,"INCLINATION":9.331,"RA_OF_ASC_NODE":57.4351,"ARG_OF_PERICENTER":334.5732,"MEAN_ANOMALY":37.7739,"EPHEMERIS_TYPE":0,"CLASSIFICATION_TYPE":"U","NORAD_CAT_ID":27632,"ELEMENT_SET_NO":999,"REV_AT_EPOCH":4367,"BSTAR":0,"MEAN_MOTION_DOT":-7.6e-7,"MEAN_MOTION_DDOT":0},{"OBJECT_NAME":"USA 167","OBJECT_ID":"2003-008A","EPOCH":"2026-04-26T21:32:33.859968","MEAN_MOTION":1.00273746,"ECCENTRICITY":0.0005081,"INCLINATION":10.8628,"RA_OF_ASC_NODE":43.8641,"ARG_OF_PERICENTER":306.8923,"MEAN_ANOMALY":65.0904,"EPHEMERIS_TYPE":0,"CLASSIFICATION_TYPE":"U","NORAD_CAT_ID":27691,"ELEMENT_SET_NO":999,"REV_AT_EPOCH":626,"BSTAR":0,"MEAN_MOTION_DOT":-1.0e-8,"MEAN_MOTION_DDOT":0},{"OBJECT_NAME":"TITAN 4 CENTAUR R/B","OBJECT_ID":"2003-012B","EPOCH":"2026-04-26T18:54:52.003296","MEAN_MOTION":1.00595579,"ECCENTRICITY":0.0023792,"INCLINATION":11.103,"RA_OF_ASC_NODE":23.5857,"ARG_OF_PERICENTER":278.6661,"MEAN_ANOMALY":81.0001,"EPHEMERIS_TYPE":0,"CLASSIFICATION_TYPE":"U","NORAD_CAT_ID":27712,"ELEMENT_SET_NO":999,"REV_AT_EPOCH":2527,"BSTAR":0,"MEAN_MOTION_DOT":-9.8e-7,"MEAN_MOTION_DDOT":0},{"OBJECT_NAME":"INSAT-3A","OBJECT_ID":"2003-013A","EPOCH":"2026-04-27T00:03:49.353120","MEAN_MOTION":0.9979932,"ECCENTRICITY":0.0011302,"INCLINATION":8.7102,"RA_OF_ASC_NODE":61.5562,"ARG_OF_PERICENTER":322.4115,"MEAN_ANOMALY":240.4529,"EPHEMERIS_TYPE":0,"CLASSIFICATION_TYPE":"U","NORAD_CAT_ID":27714,"ELEMENT_SET_NO":999,"REV_AT_EPOCH":8421,"BSTAR":0,"MEAN_MOTION_DOT":1.26e-6,"MEAN_MOTION_DDOT":0},{"OBJECT_NAME":"ASIASAT 4","OBJECT_ID":"2003-014A","EPOCH":"2026-04-26T18:29:38.787648","MEAN_MOTION":1.0027076,"ECCENTRICITY":0.00027943,"INCLINATION":4.5741,"RA_OF_ASC_NODE":76.3738,"ARG_OF_PERICENTER":328.4481,"MEAN_ANOMALY":234.9125,"EPHEMERIS_TYPE":0,"CLASSIFICATION_TYPE":"U","NORAD_CAT_ID":27718,"ELEMENT_SET_NO":999,"REV_AT_EPOCH":4478,"BSTAR":0,"MEAN_MOTION_DOT":-2.3e-6,"MEAN_MOTION_DDOT":0},{"OBJECT_NAME":"SL-12 R/B(2)","OBJECT_ID":"2003-015F","EPOCH":"2026-04-26T14:21:38.695392","MEAN_MOTION":1.00262124,"ECCENTRICITY":0.0010736,"INCLINATION":12.6933,"RA_OF_ASC_NODE":20.7698,"ARG_OF_PERICENTER":36.4219,"MEAN_ANOMALY":144.2341,"EPHEMERIS_TYPE":0,"CLASSIFICATION_TYPE":"U","NORAD_CAT_ID":27780,"ELEMENT_SET_NO":999,"REV_AT_EPOCH":8398,"BSTAR":0,"MEAN_MOTION_DOT":-3.53e-6,"MEAN_MOTION_DDOT":0},{"OBJECT_NAME":"GSAT-2","OBJECT_ID":"2003-018A","EPOCH":"2026-04-26T23:53:42.823392","MEAN_MOTION":0.99854335,"ECCENTRICITY":0.0012122,"INCLINATION":11.0786,"RA_OF_ASC_NODE":42.1298,"ARG_OF_PERICENTER":344.404,"MEAN_ANOMALY":199.8673,"EPHEMERIS_TYPE":0,"CLASSIFICATION_TYPE":"U","NORAD_CAT_ID":27807,"ELEMENT_SET_NO":999,"REV_AT_EPOCH":8392,"BSTAR":0,"MEAN_MOTION_DOT":-4.0e-8,"MEAN_MOTION_DDOT":0},{"OBJECT_NAME":"HELLAS-SAT 2","OBJECT_ID":"2003-020A","EPOCH":"2026-04-27T05:28:38.742816","MEAN_MOTION":1.00272026,"ECCENTRICITY":0.0004409,"INCLINATION":7.2309,"RA_OF_ASC_NODE":68.4825,"ARG_OF_PERICENTER":293.0265,"MEAN_ANOMALY":285.876,"EPHEMERIS_TYPE":0,"CLASSIFICATION_TYPE":"U","NORAD_CAT_ID":27811,"ELEMENT_SET_NO":999,"REV_AT_EPOCH":4233,"BSTAR":0,"MEAN_MOTION_DOT":-8.9e-7,"MEAN_MOTION_DDOT":0}]
