INTELSAT 902 (IS-902)   
1 26900U 01039A   26116.90808588 -.00000290  00000+0  00000+0 0  9992
2 26900   5.9893  72.3941 0004515 320.0211  99.3035  1.00270761 90184
SL-12 R/B(2)            
1 26939U 01045D   26116.98807281 -.00000042  00000+0  00000+0 0  9993
2 26939  13.8499  12.4753 0026555  27.9038 238.5173  1.00210490 90217
ECHOSTAR 7              
1 27378U 02006A   26117.08288887  .00000081  00000+0  00000+0 0  9998
2 27378   3.8848  78.0095 0003397 299.2036 290.4995  0.99832449 50025
INTELSAT 904 (IS-904)   
1 27380U 02007A   26116.70164001 -.00000233  00000+0  00000+0 0  9991
2 27380   6.7944  69.7905 0007747 338.9290  27.0697  1.00269764 51256
DIRECTV 5 (TEMPO 1)     
1 27426U 02023A   26117.20962397 -.00000063  00000+0  00000+0 0  9991
2 27426   4.7500  75.9287 0003499 323.3824 141.2470  1.00272048 87612
INTELSAT 905 (IS-905)   
1 27438U 02027A   26117.03723470  .00000088  00000+0  00000+0 0  9992
2 27438   6.6280  70.4041 0003493 339.7055  41.1333  1.00273783 50859
GALAXY 3C (G-3C)        
1 27445U 02030A   26117.18222560 -.00000160  00000+0  00000+0 0  9996
2 27445   3.6002  78.6573 0001613  24.7309  82.5201  1.00271753 45987
INTELSAT 906 (IS-906)   
1 27513U 02041A   26117.00577456  .00000007  00000+0  00000+0 0  9991
2 27513   5.6741  73.5351 0004040 336.0928 231.6081  1.00270668 86517
EUTELSAT 33B            
1 27554U 02051A   26116.99832119  .00000128  00000+0  00000+0 0  9998
2 27554   8.8602  60.4384 0015090 332.2637 208.1456  1.00224734 48286
NIMIQ 2                 
1 27632U 02062A   26116.90012748 -.00000076  00000+0  00000+0 0  9999
2 27632   9.3310  57.4351 0006387 334.5732  37.7739  1.00273037 43673
USA 167                 
1 27691U 03008A   26116.89761412 -.00000001  00000+0  00000+0 0  9990
2 27691  10.8628  43.8641 0005081 306.8923  65.0904  1.00273746  6261
TITAN 4 CENTAUR R/B     
1 27712U 03012B   26116.78810189 -.00000098  00000+0  00000+0 0  9999
2 27712  11.1030  23.5857 0023792 278.6661  81.0001  1.00595579 25273
INSAT-3A                
1 27714U 03013A   26117.00265455  .00000126  00000+0  00000+0 0  9999
2 27714   8.7102  61.5562 0011302 322.4115 240.4529  0.99799320 84210
ASIASAT 4               
1 27718U 03014A   26116.77058782 -.00000230  00000+0  00000+0 0  9997
2 27718   4.5741  76.3738 0002794 328.4481 234.9125  1.00270760 44786
SL-12 R/B(2)            
1 27780U 03015F   26116.59836453 -.00000353  00000+0  00000+0 0  9992
2 27780  12.6933  20.7698 0010736  36.4219 144.2341  1.00262124 83989
GSAT-2                  
1 27807U 03018A   26116.99563453 -.00000004  00000+0  00000+0 0  9999
2 27807  11.0786  42.1298 0012122 344.4040 199.8673  0.99854335 83923
HELLAS-SAT 2            
1 27811U 03020A   26117.22822619 -.00000089  00000+0  00000+0 0  9999
2 27811   7.2309  68.4825 0004409 293.0265 285.8760  1.00272026 42337
